GLOBALSTAR M057         
1 25943U 99058A   24361.02594064 -.00000052  00000+0  36785-3 0  9999
2 25943  51.9976 119.6270 0002649  46.4680 313.6389 12.24805855145718
GLOBALSTAR M059         
1 25944U 99058B   24361.26957300 -.00000113  00000+0 -33171-3 0  9997
2 25944  52.0040 314.9691 0000649  19.5581 128.3167 11.99973060553284
GLOBALSTAR M056         
1 25945U 99058C   24361.29530562 -.00000092  00000+0 -57333-4 0  9991
2 25945  51.9986 321.2955 0000498 194.9147 313.4423 12.04775352141785
GLOBALSTAR M031         
1 25946U 99058D   24361.16062257 -.00000113  00000+0 -23218-3 0  9997
2 25946  51.9934 224.3558 0001423 137.8882  10.8665 12.16024966143499
GLOBALSTAR M039         
1 25961U 99062A   24361.23458290 -.00000091  00000+0  69496-4 0  9996
2 25961  51.9855  75.4914 0002024 331.3086  28.7669 12.62313899158376
GLOBALSTAR M034         
1 25962U 99062B   24361.30632767 -.00000110  00000+0 -46808-3 0  9992
2 25962  51.9874 100.7757 0014673  77.6242 297.3719 11.79437218117994
GLOBALSTAR M029         
1 25963U 99062C   24361.10045133 -.00000060  00000+0  32353-3 0  9999
2 25963  51.9769 203.6122 0003451 119.4216  28.4348 11.99889391148344
GLOBALSTAR M061         
1 25964U 99062D   24361.29555573 -.00000069  00000+0  18922-3 0  9999
2 25964  51.9803 282.5470 0006589   5.2902 169.4101 11.76769341100826
